{"type": "FeatureCollection", "features": [ {"type": "Feature", "properties": {"norad_id": 44622, "name": "GAOFEN-10R", "group": "resource", "lat": -81.71399133775789, "lon": 41.74434443241237, "alt_km": 630.897263292406, "timestamp": "2025-12-15T22:44:28.581213+00:00", "meta": {"OBJECT_NAME": "GAOFEN-10R", "OBJECT_ID": "2019-066A", "EPOCH": "2025-12-15T08:34:47.652672", "MEAN_MOTION": 14.82801287, "ECCENTRICITY": 0.00077205, "INCLINATION": 98.0281, "RA_OF_ASC_NODE": 296.8739, "ARG_OF_PERICENTER": 34.3495, "MEAN_ANOMALY": 325.8216, "EPHEMERIS_TYPE": 0, "CLASSIFICATION_TYPE": "U", "NORAD_CAT_ID": 44622, "ELEMENT_SET_NO": 999, "REV_AT_EPOCH": 33513, "BSTAR": 0.00022073199, "MEAN_MOTION_DOT": 1.731e-05, "MEAN_MOTION_DDOT": 0}, "tle": {"line1": "1 44622U 19066A   25349.35749598  .00001731  00000+0  22073-3 0  9991", "line2": "2 44622  98.0281 296.8739 0007720  34.3495 325.8216 14.82801287335139"}}, "geometry": {"type": "Point", "coordinates": [41.74434443241237, -81.71399133775789]}}, {"type": "Feature", "properties": {"norad_id": 44804, "name": "CARTOSAT-3", "group": "resource", "lat": 48.59676772143602, "lon": -121.96498821746977, "alt_km": 498.87117082176337, "timestamp": "2025-12-15T22:44:28.581223+00:00", "meta": {"OBJECT_NAME": "CARTOSAT-3", "OBJECT_ID": "2019-081A", "EPOCH": "2025-12-15T07:56:29.690880", "MEAN_MOTION": 15.19176014, "ECCENTRICITY": 0.00140688, "INCLINATION": 97.4584, "RA_OF_ASC_NODE": 48.8816, "ARG_OF_PERICENTER": 74.7867, "MEAN_ANOMALY": 285.4922, "EPHEMERIS_TYPE": 0, "CLASSIFICATION_TYPE": "U", "NORAD_CAT_ID": 44804, "ELEMENT_SET_NO": 999, "REV_AT_EPOCH": 33555, "BSTAR": 0.00016715059, "MEAN_MOTION_DOT": 3.455e-05, "MEAN_MOTION_DDOT": 0}, "tle": {"line1": "1 44804U 19081A   25349.33089920  .00003455  00000+0  16715-3 0  9995", "line2": "2 44804  97.4584  48.8816 0014068  74.7867 285.4922 15.19176014335550"}}, "geometry": {"type": "Point", "coordinates": [-121.96498821746977, 48.59676772143602]}}, {"type": "Feature", "properties": {"norad_id": 44819, "name": "GAOFEN-12 01", "group": "resource", "lat": 29.286768160407952, "lon": -179.4390077449809, "alt_km": 625.436698486933, "timestamp": "2025-12-15T22:44:28.581236+00:00", "meta": {"OBJECT_NAME": "GAOFEN-12 01", "OBJECT_ID": "2019-082A", "EPOCH": "2025-12-15T07:28:03.057600", "MEAN_MOTION": 14.80660234, "ECCENTRICITY": 0.00014612, "INCLINATION": 97.8126, "RA_OF_ASC_NODE": 355.5247, "ARG_OF_PERICENTER": 218.3908, "MEAN_ANOMALY": 141.7201, "EPHEMERIS_TYPE": 0, "CLASSIFICATION_TYPE": "U", "NORAD_CAT_ID": 44819, "ELEMENT_SET_NO": 999, "REV_AT_EPOCH": 32688, "BSTAR": 7.4714549e-05, "MEAN_MOTION_DOT": 5.23e-06, "MEAN_MOTION_DDOT": 0}, "tle": {"line1": "1 44819U 19082A   25349.31114650  .00000523  00000+0  74715-4 0  9997", "line2": "2 44819  97.8126 355.5247 0001461 218.3908 141.7201 14.80660234326882"}}, "geometry": {"type": "Point", "coordinates": [-179.4390077449809, 29.286768160407952]}}, {"type": "Feature", "properties": {"norad_id": 44873, "name": "CSG-1", "group": "resource", "lat": -78.31912901529842, "lon": -146.7097144036943, "alt_km": 630.7828483855992, "timestamp": "2025-12-15T22:44:28.581246+00:00", "meta": {"OBJECT_NAME": "CSG-1", "OBJECT_ID": "2019-092A", "EPOCH": "2025-12-15T08:31:32.846592", "MEAN_MOTION": 14.8216804, "ECCENTRICITY": 0.00014203, "INCLINATION": 97.881, "RA_OF_ASC_NODE": 170.6401, "ARG_OF_PERICENTER": 84.0794, "MEAN_ANOMALY": 276.0581, "EPHEMERIS_TYPE": 0, "CLASSIFICATION_TYPE": "U", "NORAD_CAT_ID": 44873, "ELEMENT_SET_NO": 999, "REV_AT_EPOCH": 32424, "BSTAR": 8.958018e-05, "MEAN_MOTION_DOT": 6.61e-06, "MEAN_MOTION_DDOT": 0}, "tle": {"line1": "1 44873U 19092A   25349.35524128  .00000661  00000+0  89580-4 0  9996", "line2": "2 44873  97.8810 170.6401 0001420  84.0794 276.0581 14.82168040324247"}}, "geometry": {"type": "Point", "coordinates": [-146.7097144036943, -78.31912901529842]}}, {"type": "Feature", "properties": {"norad_id": 46277, "name": "NEMO-HD", "group": "resource", "lat": 27.9987301155284, "lon": 45.13919282563147, "alt_km": 442.7720838840014, "timestamp": "2025-12-15T22:44:28.581257+00:00", "meta": {"OBJECT_NAME": "NEMO-HD", "OBJECT_ID": "2020-061F", "EPOCH": "2025-12-15T08:35:15.029376", "MEAN_MOTION": 15.40386629, "ECCENTRICITY": 0.00017008, "INCLINATION": 97.2215, "RA_OF_ASC_NODE": 48.4225, "ARG_OF_PERICENTER": 53.7042, "MEAN_ANOMALY": 306.4361, "EPHEMERIS_TYPE": 0, "CLASSIFICATION_TYPE": "U", "NORAD_CAT_ID": 46277, "ELEMENT_SET_NO": 999, "REV_AT_EPOCH": 29364, "BSTAR": 0.00020577377, "MEAN_MOTION_DOT": 8.233e-05, "MEAN_MOTION_DDOT": 0}, "tle": {"line1": "1 46277U 20061F   25349.35781284  .00008233  00000+0  20577-3 0  9995", "line2": "2 46277  97.2215  48.4225 0001700  53.7042 306.4361 15.40386629293649"}}, "geometry": {"type": "Point", "coordinates": [45.13919282563147, 27.9987301155284]}}, {"type": "Feature", "properties": {"norad_id": 46984, "name": "SENTINEL-6A", "group": "resource", "lat": 44.39248808556875, "lon": -50.160676016525656, "alt_km": 1337.5063230568849, "timestamp": "2025-12-15T22:44:28.581268+00:00", "meta": {"OBJECT_NAME": "SENTINEL-6A", "OBJECT_ID": "2020-086A", "EPOCH": "2025-12-15T05:12:00.377856", "MEAN_MOTION": 12.80930694, "ECCENTRICITY": 0.0007722, "INCLINATION": 66.039, "RA_OF_ASC_NODE": 157.1633, "ARG_OF_PERICENTER": 269.2823, "MEAN_ANOMALY": 90.7307, "EPHEMERIS_TYPE": 0, "CLASSIFICATION_TYPE": "U", "NORAD_CAT_ID": 46984, "ELEMENT_SET_NO": 999, "REV_AT_EPOCH": 23676, "BSTAR": 0.00012257535, "MEAN_MOTION_DOT": -3.3e-07, "MEAN_MOTION_DDOT": 0}, "tle": {"line1": "1 46984U 20086A   25349.21667104 -.00000033  00000+0  12258-3 0  9994", "line2": "2 46984  66.0390 157.1633 0007722 269.2823  90.7307 12.80930694236765"}}, "geometry": {"type": "Point", "coordinates": [-50.160676016525656, 44.39248808556875]}}, {"type": "Feature", "properties": {"norad_id": 48079, "name": "GAOFEN-12 02", "group": "resource", "lat": 17.798714684017884, "lon": 166.52136140432947, "alt_km": 626.68506531, "timestamp": "2025-12-15T22:44:28.581279+00:00", "meta": {"OBJECT_NAME": "GAOFEN-12 02", "OBJECT_ID": "2021-026A", "EPOCH": "2025-12-15T05:47:38.749344", "MEAN_MOTION": 14.80677991, "ECCENTRICITY": 0.00035819, "INCLINATION": 97.9852, "RA_OF_ASC_NODE": 343.2357, "ARG_OF_PERICENTER": 96.1045, "MEAN_ANOMALY": 264.0576, "EPHEMERIS_TYPE": 0, "CLASSIFICATION_TYPE": "U", "NORAD_CAT_ID": 48079, "ELEMENT_SET_NO": 999, "REV_AT_EPOCH": 25454, "BSTAR": 7.7085262e-05, "MEAN_MOTION_DOT": 5.4e-06, "MEAN_MOTION_DDOT": 0}, "tle": {"line1": "1 48079U 21026A   25349.24142071  .00000540  00000+0  77085-4 0  9992", "line2": "2 48079  97.9852 343.2357 0003581  96.1045 264.0576 14.80677991254541"}}, "geometry": {"type": "Point", "coordinates": [166.52136140432947, 17.798714684017884]}}, {"type": "Feature", "properties": {"norad_id": 48268, "name": "PLEIADES NEO 3", "group": "resource", "lat": -59.44790457029185, "lon": -131.253823669057, "alt_km": 631.9707489556904, "timestamp": "2025-12-15T22:44:28.581289+00:00", "meta": {"OBJECT_NAME": "PLEIADES NEO 3", "OBJECT_ID": "2021-034A", "EPOCH": "2025-12-15T05:27:07.814592", "MEAN_MOTION": 14.81673903, "ECCENTRICITY": 0.00013201, "INCLINATION": 97.8945, "RA_OF_ASC_NODE": 61.6322, "ARG_OF_PERICENTER": 93.5672, "MEAN_ANOMALY": 266.5692, "EPHEMERIS_TYPE": 0, "CLASSIFICATION_TYPE": "U", "NORAD_CAT_ID": 48268, "ELEMENT_SET_NO": 999, "REV_AT_EPOCH": 25041, "BSTAR": 0.00025143135, "MEAN_MOTION_DOT": 1.927e-05, "MEAN_MOTION_DDOT": 0}, "tle": {"line1": "1 48268U 21034A   25349.22717378  .00001927  00000+0  25143-3 0  9994", "line2": "2 48268  97.8945  61.6322 0001320  93.5672 266.5692 14.81673903250410"}}, "geometry": {"type": "Point", "coordinates": [-131.253823669057, -59.44790457029185]}}, {"type": "Feature", "properties": {"norad_id": 49070, "name": "PLEIADES NEO 4", "group": "resource", "lat": 59.35756928775741, "lon": 48.79192078867701, "alt_km": 617.5043272352186, "timestamp": "2025-12-15T22:44:28.581299+00:00", "meta": {"OBJECT_NAME": "PLEIADES NEO 4", "OBJECT_ID": "2021-073E", "EPOCH": "2025-12-15T07:52:59.210112", "MEAN_MOTION": 14.81671544, "ECCENTRICITY": 0.00013062, "INCLINATION": 97.8945, "RA_OF_ASC_NODE": 61.728, "ARG_OF_PERICENTER": 89.8966, "MEAN_ANOMALY": 270.2397, "EPHEMERIS_TYPE": 0, "CLASSIFICATION_TYPE": "U", "NORAD_CAT_ID": 49070, "ELEMENT_SET_NO": 999, "REV_AT_EPOCH": 23414, "BSTAR": 1.3202251e-05, "MEAN_MOTION_DOT": 5.2e-07, "MEAN_MOTION_DDOT": 0}, "tle": {"line1": "1 49070U 21073E   25349.32846308  .00000052  00000+0  13202-4 0  9998", "line2": "2 49070  97.8945  61.7280 0001306  89.8966 270.2397 14.81671544234149"}}, "geometry": {"type": "Point", "coordinates": [48.79192078867701, 59.35756928775741]}}, {"type": "Feature", "properties": {"norad_id": 49260, "name": "LANDSAT 9", "group": "resource", "lat": 25.84537688121457, "lon": -117.9780221471126, "alt_km": 701.35367873204, "timestamp": "2025-12-15T22:44:28.581311+00:00", "meta": {"OBJECT_NAME": "LANDSAT 9", "OBJECT_ID": "2021-088A", "EPOCH": "2025-12-15T07:12:18.988128", "MEAN_MOTION": 14.57100581, "ECCENTRICITY": 0.00011451, "INCLINATION": 98.2093, "RA_OF_ASC_NODE": 57.3742, "ARG_OF_PERICENTER": 89.4087, "MEAN_ANOMALY": 270.7242, "EPHEMERIS_TYPE": 0, "CLASSIFICATION_TYPE": "U", "NORAD_CAT_ID": 49260, "ELEMENT_SET_NO": 999, "REV_AT_EPOCH": 22422, "BSTAR": 0.00011239756, "MEAN_MOTION_DOT": 4.61e-06, "MEAN_MOTION_DDOT": 0}, "tle": {"line1": "1 49260U 21088A   25349.30021977  .00000461  00000+0  11240-3 0  9993", "line2": "2 49260  98.2093  57.3742 0001145  89.4087 270.7242 14.57100581224227"}}, "geometry": {"type": "Point", "coordinates": [-117.9780221471126, 25.84537688121457]}}]}